address_full,number,street,city,state,zip,longitude,latitude,statefp,countyfp,tractce,blkgrpce
"150 E 57 ST NEW YORK, NY 10022 ",150,E  57 ST,NEW YORK,NY,10022,-73.96858,40.760489,36,061,011203,1
"301 PARK PL NEW YORK, NY 11238 ",301,PARK PL,NEW YORK,NY,11238,-73.967773,40.676629,36,047,020500,3
"206 COTTER AVE NEW YORK, NY 10306 ",206,COTTER AVE,NEW YORK,NY,10306,-74.142019,40.564129,36,085,014606,4
"37 VAN CORTLANDT AVE NEW YORK, NY 10301 ",37,VAN CORTLANDT AVE,NEW YORK,NY,10301,-74.099542,40.61662,36,085,004700,1
"315 E 58 ST NEW YORK, NY 10022 ",315,E  58 ST,NEW YORK,NY,10022,-73.964063,40.759789,36,061,010802,2
"211 VAN BUREN ST NEW YORK, NY 11221 ",211,VAN BUREN ST,NEW YORK,NY,11221,-73.937848,40.690816,36,047,027900,1
"27-20 COLLEGE POINT BLVD NEW YORK, NY 11354 ",27-20,COLLEGE POINT BLVD,NEW YORK,NY,11354,-73.846163,40.773349,36,081,091900,1
"191-47 115 AVE NEW YORK, NY 11412 ",191-47,115 AVE,NEW YORK,NY,11412,-73.760029,40.696509,36,081,052600,2
"85-18 213 ST NEW YORK, NY 11427 ",85-18,213 ST,NEW YORK,NY,11427,-73.756264,40.729521,36,081,129102,2
"491 W 56 ST NEW YORK, NY 10019 ",491,W  56 ST,NEW YORK,NY,10019,-73.988759,40.768422,36,061,013900,2
"728 MONTGOMERY ST NEW YORK, NY 11213 ",728,MONTGOMERY ST,NEW YORK,NY,11213,-73.940748,40.664707,36,047,033100,2
"1627 W 5 ST NEW YORK, NY 11223 ",1627,W  5 ST,NEW YORK,NY,11223,-73.978373,40.607452,36,047,042400,3
"738 41 ST NEW YORK, NY 11232 ",738,41 ST,NEW YORK,NY,11232,-73.999919,40.646654,36,047,009201,1
"2956 RADCLIFF AVE NEW YORK, NY 10469 ",2956,RADCLIFF AVE,NEW YORK,NY,10469,-73.860228,40.869222,36,005,034200,2
"1660 51 ST NEW YORK, NY 11204 ",1660,51 ST,NEW YORK,NY,11204,-73.985233,40.628888,36,047,047200,3
"746 CRESCENT ST NEW YORK, NY 11208 ",746,CRESCENT ST,NEW YORK,NY,11208,-73.868669,40.669318,36,047,120801,2
"20 HAMILTON TER NEW YORK, NY 10031 ",20,HAMILTON TER,NEW YORK,NY,10031,-73.946849,40.822503,36,061,022700,2
"1126 E 99 ST NEW YORK, NY 11236 ",1126,E  99 ST,NEW YORK,NY,11236,-73.894973,40.640811,36,047,101200,1
"526 80 ST NEW YORK, NY 11209 ",526,80 ST,NEW YORK,NY,11209,-74.023498,40.625253,36,047,013800,1
"83 DARTMOUTH ST NEW YORK, NY 11375 ",83,DARTMOUTH ST,NEW YORK,NY,11375,-73.848804,40.718559,36,081,072300,2
"2025 E 34 ST NEW YORK, NY 11234 ",2025,E  34 ST,NEW YORK,NY,11234,-73.932073,40.608364,36,047,065800,1
"1804 STERLING PL NEW YORK, NY 11233 ",1804,STERLING PL,NEW YORK,NY,11233,-73.918683,40.670662,36,047,036100,1
"2530 FLATBUSH AVE NEW YORK, NY 11234 ",2530,FLATBUSH AVE,NEW YORK,NY,11234,-73.921617,40.608612,36,047,066200,1
"739 KNICKERBOCKER AVE NEW YORK, NY 11237 ",739,KNICKERBOCKER AVE,NEW YORK,NY,11237,-73.909336,40.693809,36,047,043700,4
"697 ALABAMA AVE NEW YORK, NY 11207 ",697,ALABAMA AVE,NEW YORK,NY,11207,-73.894065,40.659151,36,047,113000,4
"1763 E 5 ST NEW YORK, NY 11223 ",1763,E  5 ST,NEW YORK,NY,11223,-73.968563,40.607572,36,047,042200,1
"469 15 ST NEW YORK, NY 11215 ",469,15 ST,NEW YORK,NY,11215,-73.980319,40.661324,36,047,016700,4
"113-39 FRANCIS LEWIS BLVD NEW YORK, NY 11429 ",113-39,FRANCIS LEWIS BLVD,NEW YORK,NY,11429,-73.748554,40.701969,36,081,051600,2
"166 LIVINGSTON ST NEW YORK, NY 11201 ",166,LIVINGSTON ST,NEW YORK,NY,11201,-73.987379,40.690136,36,047,003700,1
"62 GARRETSON LN NEW YORK, NY 10304 ",62,GARRETSON LN,NEW YORK,NY,10304,-74.085599,40.603173,36,085,005000,3
"69-15 166 ST NEW YORK, NY 11365 ",69-15,166 ST,NEW YORK,NY,11365,-73.80293,40.732439,36,081,122300,3
"90-11 78 ST NEW YORK, NY 11421 ",90-11,78 ST,NEW YORK,NY,11421,-73.862681,40.687443,36,081,000600,1
"79-41 69 RD NEW YORK, NY 11379 ",79-41,69 RD,NEW YORK,NY,11379,-73.871773,40.709261,36,081,062100,2
"1045 WHEELER AVE NEW YORK, NY 10472 ",1045,WHEELER AVE,NEW YORK,NY,10472,-73.879429,40.824743,36,005,005001,1
"274 BALCOM AVE NEW YORK, NY 10465 ",274,BALCOM AVE,NEW YORK,NY,10465,-73.822599,40.816215,36,005,013200,5
"1158 E 38 ST NEW YORK, NY 11210 ",1158,E  38 ST,NEW YORK,NY,11210,-73.939427,40.626828,36,047,074000,2
"210 BEVERLY RD NEW YORK, NY 11363 ",210,BEVERLY RD,NEW YORK,NY,11363,-73.751151,40.776898,36,081,148300,3
"13 RUMSON RD NEW YORK, NY 10314 ",13,RUMSON RD,NEW YORK,NY,10314,-74.159377,40.577402,36,085,027702,1
"2014 52 ST NEW YORK, NY 11204 ",2014,52 ST,NEW YORK,NY,11204,-73.977885,40.623533,36,047,046400,1
"108-07 101 AVE NEW YORK, NY 11419 ",108-07,101 AVE,NEW YORK,NY,11419,-73.83524,40.687458,36,081,011000,1
"602 HANCOCK ST NEW YORK, NY 11233 ",602,HANCOCK ST,NEW YORK,NY,11233,-73.931318,40.68456,36,047,029500,2
"523 47 ST NEW YORK, NY 11220 ",523,47 ST,NEW YORK,NY,11220,-74.007834,40.646494,36,047,009600,3
"22-12 125 ST NEW YORK, NY 11356 ",22-12,125 ST,NEW YORK,NY,11356,-73.843458,40.77976,36,081,091900,2
"116-31 227 ST NEW YORK, NY 11411 ",116-31,227 ST,NEW YORK,NY,11411,-73.733435,40.693995,36,081,060000,1
"53-24 199 ST NEW YORK, NY 11365 ",53-24,199 ST,NEW YORK,NY,11365,-73.779104,40.747721,36,081,140902,2
"32-16 149 ST NEW YORK, NY 11354 ",32-16,149 ST,NEW YORK,NY,11354,-73.817508,40.769777,36,081,115900,2
"444 E 148 ST NEW YORK, NY 10455 ",444,E  148 ST,NEW YORK,NY,10455,-73.916539,40.814562,36,005,004300,2
"24-06 169 ST NEW YORK, NY 11357 ",24-06,169 ST,NEW YORK,NY,11357,-73.795545,40.775431,36,081,101700,2
"530 MEEKER AVE NEW YORK, NY 11222 ",530,MEEKER AVE,NEW YORK,NY,11222,-73.94324,40.72042,36,047,047700,1
"850 9 AVE NEW YORK, NY 10019 ",850,9 AVE,NEW YORK,NY,10019,-73.986348,40.766748,36,061,013900,5
"301 W 125 ST NEW YORK, NY 10027 ",301,W  125 ST,NEW YORK,NY,10027,-73.951447,40.810453,36,061,025700,1
"1801 PITKIN AVE NEW YORK, NY 11212 ",1801,PITKIN AVE,NEW YORK,NY,11212,-73.906487,40.67044,36,047,090800,1
"14 SANDGAP ST NEW YORK, NY 10312 ",14,SANDGAP ST,NEW YORK,NY,10312,-74.161407,40.528395,36,085,017600,2
"14 GAYNOR ST NEW YORK, NY 10309 ",14,GAYNOR ST,NEW YORK,NY,10309,-74.220082,40.524189,36,085,022601,4
"175 CHESTNUT AVE NEW YORK, NY 10305 ",175,CHESTNUT AVE,NEW YORK,NY,10305,-74.074206,40.615471,36,085,003600,1
"102-01 183 PL NEW YORK, NY 11423 ",102-01,183 PL,NEW YORK,NY,11423,-73.774056,40.706671,36,081,040400,2
"123-12 BENTON ST NEW YORK, NY 11413 ",123-12,BENTON ST,NEW YORK,NY,11413,-73.75571,40.682636,36,081,035200,1
"23-63 23 ST NEW YORK, NY 11105 ",23-63,23 ST,NEW YORK,NY,11105,-73.919514,40.776543,36,081,009700,2
"49 LOUIS ST NEW YORK, NY 10304 ",49,LOUIS ST,NEW YORK,NY,10304,-74.086549,40.630354,36,085,003300,1
"112-43 COLFAX ST NEW YORK, NY 11429 ",112-43,COLFAX ST,NEW YORK,NY,11429,-73.745344,40.704198,36,081,053601,2
"2268 HENDRICKSON ST NEW YORK, NY 11234 ",2268,HENDRICKSON ST,NEW YORK,NY,11234,-73.922232,40.608013,36,047,066200,1
"3824 QUENTIN RD NEW YORK, NY 11234 ",3824,QUENTIN RD,NEW YORK,NY,11234,-73.934623,40.61582,36,047,065400,1
"168-11 67 AVE NEW YORK, NY 11365 ",168-11,67 AVE,NEW YORK,NY,11365,-73.800596,40.734952,36,081,122300,2
"1081 E 58 ST NEW YORK, NY 11234 ",1081,E  58 ST,NEW YORK,NY,11234,-73.919931,40.628247,36,047,072000,1
"184-10 JAMAICA AVE NEW YORK, NY 11423 ",184-10,JAMAICA AVE,NEW YORK,NY,11423,-73.774838,40.70923,36,081,044400,3
"120-36 172 ST NEW YORK, NY 11434 ",120-36,172 ST,NEW YORK,NY,11434,-73.772886,40.682425,36,081,028400,1
"150 BCH 25 ST NEW YORK, NY 11691 ",150,BCH 25 ST,NEW YORK,NY,11691,-73.758061,40.593363,36,081,099802,1
"785 LYDIG AVE NEW YORK, NY 10462 ",785,LYDIG AVE,NEW YORK,NY,10462,-73.864296,40.85453,36,005,022800,3
"454 LORIMER ST NEW YORK, NY 11206 ",454,LORIMER ST,NEW YORK,NY,11206,-73.94865,40.710555,36,047,050300,2
"800 LENOX RD NEW YORK, NY 11203 ",800,LENOX RD,NEW YORK,NY,11203,-73.930082,40.655261,36,047,086800,2
"4215 7 AVE NEW YORK, NY 11232 ",4215,7 AVE,NEW YORK,NY,11232,-74.001469,40.646509,36,047,009201,2
"194-01 112 RD NEW YORK, NY 11412 ",194-01,112 RD,NEW YORK,NY,11412,-73.761314,40.700672,36,081,052400,2
"163-15 97 ST NEW YORK, NY 11414 ",163-15,97 ST,NEW YORK,NY,11414,-73.834123,40.652548,36,081,088400,5
"10 LIBERTY ST NEW YORK, NY 10005 ",10,LIBERTY ST,NEW YORK,NY,10005,-74.008085,40.707449,36,061,000700,4
"259 HENRY ST NEW YORK, NY 11201 ",259,HENRY ST,NEW YORK,NY,11201,-73.995107,40.692819,36,047,000700,3
"1828 DRUMGOOLE RD W NEW YORK, NY 10309 ",1828,DRUMGOOLE RD  W,NEW YORK,NY,10309,-74.204618,40.532199,36,085,020803,4
"2001 FLATBUSH AVE NEW YORK, NY 11234 ",2001,FLATBUSH AVE,NEW YORK,NY,11234,-73.934894,40.621005,36,047,065000,2
"152-15 33 AVE NEW YORK, NY 11354 ",152-15,33 AVE,NEW YORK,NY,11354,-73.81175,40.768814,36,081,115500,1
"203-12 LINDEN BLVD NEW YORK, NY 11412 ",203-12,LINDEN BLVD,NEW YORK,NY,11412,-73.748926,40.6952,36,081,038400,1
"238 WEBSTER AVE NEW YORK, NY 11230 ",238,WEBSTER AVE,NEW YORK,NY,11230,-73.972538,40.631915,36,047,048000,1
"533 CROWN ST NEW YORK, NY 11213 ",533,CROWN ST,NEW YORK,NY,11213,-73.940911,40.665924,36,047,033300,1
"69-18 225 ST NEW YORK, NY 11364 ",69-18,225 ST,NEW YORK,NY,11364,-73.750384,40.743938,36,081,137700,4
"535 W 155 ST NEW YORK, NY 10032 ",535,W  155 ST,NEW YORK,NY,10032,-73.944865,40.832531,36,061,024100,3
"3103 MILES AVE NEW YORK, NY 10465 ",3103,MILES AVE,NEW YORK,NY,10465,-73.81012,40.82138,36,005,013800,1
"931 LINCOLN PL NEW YORK, NY 11213 ",931,LINCOLN PL,NEW YORK,NY,11213,-73.945611,40.670665,36,047,033900,4
"123-21 LAX AVE NEW YORK, NY 11356 ",123-21,LAX AVE,NEW YORK,NY,11356,-73.843251,40.793897,36,081,093900,1
"223-39 112 RD NEW YORK, NY 11429 ",223-39,112 RD,NEW YORK,NY,11429,-73.732698,40.704804,36,081,058000,4
"449 MONROE ST NEW YORK, NY 11221 ",449,MONROE ST,NEW YORK,NY,11221,-73.939373,40.686895,36,047,027700,4
"1247 TROY AVE NEW YORK, NY 11203 ",1247,TROY AVE,NEW YORK,NY,11203,-73.934982,40.642184,36,047,083800,1
"91-15 86 AVE NEW YORK, NY 11421 ",91-15,86 AVE,NEW YORK,NY,11421,-73.853691,40.695448,36,081,001400,3
"21-39 32 ST NEW YORK, NY 11105 ",21-39,32 ST,NEW YORK,NY,11105,-73.90902,40.77674,36,081,011300,2
"80-33 217 ST NEW YORK, NY 11427 ",80-33,217 ST,NEW YORK,NY,11427,-73.75351,40.73354,36,081,129102,1
"1034 E 230 ST NEW YORK, NY 10466 ",1034,E  230 ST,NEW YORK,NY,10466,-73.848659,40.888001,36,005,042400,1
"2843 W 32 ST NEW YORK, NY 11224 ",2843,W  32 ST,NEW YORK,NY,11224,-73.998511,40.576169,36,047,032800,2
"419 9 AVE NEW YORK, NY 10001 ",419,9 AVE,NEW YORK,NY,10001,-73.996753,40.75308,36,061,010300,1
"1716 MCDONALD AVE NEW YORK, NY 11204 ",1716,MCDONALD AVE,NEW YORK,NY,11204,-73.973596,40.610884,36,047,043800,2
"48 S 4 ST NEW YORK, NY 11249 ",48,S  4 ST,NEW YORK,NY,11249,-73.966323,40.712905,36,047,054900,2
"2076 WALLACE AVE NEW YORK, NY 10462 ",2076,WALLACE AVE,NEW YORK,NY,10462,-73.864743,40.852629,36,005,022800,4
"28 3 PL NEW YORK, NY 11231 ",28,3 PL,NEW YORK,NY,11231,-74.000637,40.679331,36,047,006500,5
"1211 JEFFERSON AVE NEW YORK, NY 11221 ",1211,JEFFERSON AVE,NEW YORK,NY,11221,-73.913781,40.690978,36,047,041500,2